{
 "version": 0.6,
 "generator": "Overpass API 0.7.57.1 74a55df1",
 "osm3s": {
  "timestamp_osm_base": "2022-03-18T07:09:48Z",
  "timestamp_areas_base": "2022-03-17T04:49:53Z",
  "copyright": "The data included in this document is from www.openstreetmap.org. The data is made available under ODbL."
 },
 "elements": [
  {
   "type": "node",
   "id": 26686589,
   "lat": 45.1875602,
   "lon": 5.7357819,
   "tags": {
    "addr:postcode": "38000;38100",
    "capital": "6",
    "name": "Grenoble",
    "name:ar": "غرونوبل",
    "name:be": "Грэнобль",
    "name:el": "Γκρενόμπλ",
    "name:eo": "Grenoblo",
    "name:hi": "ग्रेनोब्ल",
    "name:hu": "Grenoble",
    "name:ja": "グルノーブル",
    "name:kn": "ಗ್ರೇನೋಬ್ಲ್",
    "name:la": "Cularone",
    "name:lb": "Grenobel",
    "name:lt": "Grenoblis",
    "name:oc": "Grenoble",
    "name:ru": "Гренобль",
    "name:sr": "Гренобл",
    "name:uk": "Гренобль",
    "name:zh-Hans": "格勒诺布尔",
    "name:zh-Hant": "格勒諾布爾",
    "place": "city",
    "population": "157650",
    "population:date": "2018-01-01",
    "ref:FR:SIREN": "213801855",
    "source:name:oc": "ieo-bdtopoc",
    "source:population": "wikipedia",
    "wikidata": "Q1289",
    "wikipedia": "fr:Grenoble"
   }
  },
  {
   "type": "node",
   "id": 26691404,
   "lat": 45.1437,
   "lon": 5.71927,
   "tags": {
    "addr:postcode": "38130",
    "name": "Échirolles",
    "name:ru": "Эшироль",
    "place": "town",
    "ref:FR:SIREN": "213801517",
    "wikidata": "Q211134",
    "wikipedia": "fr:Échirolles"
   }
  },
  {
   "type": "node",
   "id": 26691472,
   "lat": 45.2325079,
   "lon": 5.681781,
   "tags": {
    "addr:postcode": "38120",
    "name": "Saint-Égrève",
    "place": "town",
    "ref:FR:SIREN": "213803828",
    "wikidata": "Q1069745"
   }
  },
  {
   "type": "node",
   "id": 26691717,
   "lat": 45.1950183,
   "lon": 5.6869624,
   "tags": {
    "addr:postcode": "38600",
    "name": "Fontaine",
    "place": "town",
    "ref:FR:SIREN": "213801699",
    "wikidata": "Q838235",
    "wikipedia": "fr:Fontaine (Isère)"
   }
  },
  {
   "type": "node",
   "id": 26691919,
   "lat": 45.1790768,
   "lon": 5.6899617,
   "tags": {
    "addr:postcode": "38170",
    "name": "Seyssinet-Pariset",
    "place": "town",
    "ref:FR:SIREN": "213804859",
    "wikidata": "Q1081604",
    "wikipedia": "fr:Seyssinet-Pariset"
   }
  },
  {
   "type": "node",
   "id": 26692144,
   "lat": 45.1236837,
   "lon": 5.6978136,
   "tags": {
    "addr:postcode": "38800",
    "loc_name": "Pont-de-Claix",
    "name": "Le Pont-de-Claix",
    "place": "town",
    "ref:FR:SIREN": "213803174"
   }
  },
  {
   "type": "node",
   "id": 26694356,
   "lat": 45.0885562,
   "lon": 5.6825158,
   "tags": {
    "addr:postcode": "38760",
    "name": "Varces-Allières-et-Risset",
    "old_name": "Varces",
    "place": "village",
    "ref:FR:SIREN": "213805245"
   }
  },
  {
   "type": "node",
   "id": 26694615,
   "lat": 45.2439121,
   "lon": 5.6320571,
   "tags": {
    "addr:postcode": "38360",
    "name": "Noyarey",
    "place": "village",
    "ref:FR:SIREN": "213802812"
   }
  },
  {
   "type": "node",
   "id": 26694905,
   "lat": 45.1524,
   "lon": 5.74812,
   "tags": {
    "addr:postcode": "38320",
    "name": "Eybens",
    "place": "village",
    "ref:FR:SIREN": "213801582"
   }
  },
  {
   "type": "node",
   "id": 26695058,
   "lat": 45.2013065,
   "lon": 5.8388954,
   "tags": {
    "addr:postcode": "38420",
    "name": "Domène",
    "place": "village",
    "ref:FR:SIREN": "213801509"
   }
  },
  {
   "type": "node",
   "id": 26695106,
   "lat": 45.2088706,
   "lon": 5.7055996,
   "tags": {
    "addr:postcode": "38950",
    "name": "Saint-Martin-le-Vinoux",
    "place": "village",
    "ref:FR:SIREN": "213804230"
   }
  },
  {
   "type": "node",
   "id": 26695114,
   "lat": 45.0554868,
   "lon": 5.669033,
   "tags": {
    "addr:postcode": "38450",
    "name": "Vif",
    "place": "village",
    "ref:FR:SIREN": "213805450"
   }
  },
  {
   "type": "node",
   "id": 26695485,
   "lat": 45.2066078,
   "lon": 5.6629992,
   "tags": {
    "addr:postcode": "38360",
    "name": "Sassenage",
    "place": "town",
    "ref:FR:SIREN": "213804743"
   }
  },
  {
   "type": "node",
   "id": 26695575,
   "lat": 45.1200404,
   "lon": 5.6729013,
   "tags": {
    "addr:postcode": "38640",
    "name": "Claix",
    "place": "village"
   }
  },
  {
   "type": "node",
   "id": 26696117,
   "lat": 45.077144,
   "lon": 5.729987,
   "tags": {
    "addr:postcode": "38560",
    "name": "Champ-sur-Drac",
    "place": "village",
    "ref:FR:SIREN": "213800717"
   }
  },
  {
   "type": "node",
   "id": 26696273,
   "lat": 45.1198654,
   "lon": 5.8129345,
   "tags": {
    "addr:postcode": "38410",
    "name": "Vaulnaveys-le-Haut",
    "place": "village"
   }
  },
  {
   "type": "node",
   "id": 26697164,
   "lat": 45.2556949,
   "lon": 5.6654815,
   "tags": {
    "addr:postcode": "38120",
    "name": "Fontanil-Cornillon",
    "place": "village",
    "ref:FR:SIREN": "213801707"
   }
  },
  {
   "type": "node",
   "id": 26697433,
   "lat": 45.1053965,
   "lon": 5.7485905,
   "tags": {
    "addr:postcode": "38560",
    "name": "Jarrie",
    "place": "village",
    "ref:FR:SIREN": "213802002"
   }
  },
  {
   "type": "node",
   "id": 26697620,
   "lat": 45.1588858,
   "lon": 5.7593656,
   "tags": {
    "addr:postcode": "38320",
    "name": "Poisat",
    "place": "village",
    "ref:FR:SIREN": "213803091"
   }
  },
  {
   "type": "node",
   "id": 26697964,
   "lat": 45.0758358,
   "lon": 5.7715863,
   "tags": {
    "addr:postcode": "38220",
    "name": "Vizille",
    "place": "village",
    "ref:FR:SIREN": "213805625"
   }
  },
  {
   "type": "node",
   "id": 26698111,
   "lat": 45.1593057,
   "lon": 5.6878134,
   "tags": {
    "addr:postcode": "38180",
    "name": "Seyssins",
    "place": "village",
    "ref:FR:SIREN": "213804867"
   }
  },
  {
   "type": "node",
   "id": 26698202,
   "lat": 45.2090131,
   "lon": 5.745715,
   "tags": {
    "addr:postcode": "38700",
    "name": "La Tronche",
    "place": "village",
    "ref:FR:SIREN": "213805161"
   }
  },
  {
   "type": "node",
   "id": 26698304,
   "lat": 45.2196806,
   "lon": 5.7617836,
   "tags": {
    "addr:postcode": "38700",
    "name": "Corenc",
    "place": "village",
    "ref:FR:SIREN": "213801269"
   }
  },
  {
   "type": "node",
   "id": 26698575,
   "lat": 45.1798245,
   "lon": 5.7904194,
   "tags": {
    "addr:postcode": "38610",
    "name": "Gières",
    "place": "village",
    "ref:FR:SIREN": "213801798"
   }
  },
  {
   "type": "node",
   "id": 34054998,
   "lat": 45.1374486,
   "lon": 5.7475831,
   "tags": {
    "addr:postcode": "38320",
    "name": "Bresson",
    "place": "village",
    "ref:FR:SIREN": "213800576"
   }
  },
  {
   "type": "node",
   "id": 34055000,
   "lat": 45.1128816,
   "lon": 5.7853698,
   "tags": {
    "addr:postcode": "38320",
    "name": "Brié-et-Angonnes",
    "place": "village",
    "ref:FR:SIREN": "213800592"
   }
  },
  {
   "type": "node",
   "id": 34055006,
   "lat": 45.1099,
   "lon": 5.72827,
   "tags": {
    "addr:postcode": "38800",
    "name": "Champagnier",
    "place": "village",
    "ref:FR:SIREN": "213800683"
   }
  },
  {
   "type": "node",
   "id": 34055088,
   "lat": 45.1390486,
   "lon": 5.793088,
   "tags": {
    "addr:postcode": "38320",
    "name": "Herbeys",
    "place": "village",
    "ref:FR:SIREN": "213801889"
   }
  },
  {
   "type": "node",
   "id": 34055180,
   "lat": 45.0216706,
   "lon": 5.6452749,
   "tags": {
    "addr:postcode": "38450",
    "name": "Le Gua",
    "place": "village",
    "ref:FR:SIREN": "213801871"
   }
  },
  {
   "type": "node",
   "id": 34055186,
   "lat": 45.2599367,
   "lon": 5.7772449,
   "tags": {
    "addr:postcode": "38700",
    "name": "Le Sappey-en-Chartreuse",
    "old_name": "Sappey",
    "place": "village",
    "ref:FR:SIREN": "213804719"
   }
  },
  {
   "type": "node",
   "id": 34055212,
   "lat": 44.9796773,
   "lon": 5.6226287,
   "tags": {
    "addr:postcode": "38450",
    "name": "Miribel-Lanchâtre",
    "name:oc": "Mirabèu e L'Enchastre",
    "place": "village",
    "ref:FR:SIREN": "213802358",
    "source:name:oc": "ieo-bdtopoc"
   }
  },
  {
   "type": "node",
   "id": 34055226,
   "lat": 45.0953,
   "lon": 5.7652,
   "tags": {
    "addr:postcode": "38220",
    "name": "Montchaboud",
    "place": "village",
    "ref:FR:SIREN": "213802523"
   }
  },
  {
   "type": "node",
   "id": 34055236,
   "lat": 45.1913,
   "lon": 5.81865,
   "tags": {
    "addr:postcode": "38420",
    "name": "Murianette",
    "place": "village",
    "ref:FR:SIREN": "213802713"
   }
  },
  {
   "type": "node",
   "id": 34055241,
   "lat": 45.0091,
   "lon": 5.7006,
   "tags": {
    "addr:postcode": "38450",
    "name": "Notre-Dame-de-Commiers",
    "place": "village",
    "ref:FR:SIREN": "213802770",
    "wikidata": "Q1155557",
    "wikipedia": "fr:Notre-Dame-de-Commiers"
   }
  },
  {
   "type": "node",
   "id": 34055243,
   "lat": 45.0713,
   "lon": 5.7555,
   "tags": {
    "addr:postcode": "38220",
    "name": "Notre-Dame-de-Mésage",
    "place": "village",
    "ref:FR:SIREN": "213802796"
   }
  },
  {
   "type": "node",
   "id": 34055294,
   "lat": 45.2613,
   "lon": 5.69854,
   "tags": {
    "addr:postcode": "38120",
    "name": "Proveysieux",
    "place": "village",
    "ref:FR:SIREN": "213803257"
   }
  },
  {
   "type": "node",
   "id": 34055295,
   "lat": 45.2530337,
   "lon": 5.7181104,
   "tags": {
    "addr:postcode": "38950",
    "name": "Quaix-en-Chartreuse",
    "place": "village",
    "ref:FR:SIREN": "213803281"
   }
  },
  {
   "type": "node",
   "id": 34055324,
   "lat": 45.0439395,
   "lon": 5.8260792,
   "tags": {
    "addr:postcode": "38220",
    "name": "Saint-Barthélemy-de-Séchilienne",
    "place": "village",
    "ref:FR:SIREN": "213803646"
   }
  },
  {
   "type": "node",
   "id": 34055337,
   "lat": 45.0382806,
   "lon": 5.7040122,
   "tags": {
    "addr:postcode": "38450",
    "name": "Saint-Georges-de-Commiers",
    "place": "village",
    "ref:FR:SIREN": "213803885",
    "wikidata": "Q686097",
    "wikipedia": "fr:Saint-Georges-de-Commiers"
   }
  },
  {
   "type": "node",
   "id": 34055374,
   "lat": 45.0716067,
   "lon": 5.6428518,
   "tags": {
    "addr:postcode": "38760",
    "name": "Saint-Paul-de-Varces",
    "place": "village",
    "ref:FR:SIREN": "213804362"
   }
  },
  {
   "type": "node",
   "id": 34055381,
   "lat": 45.0507,
   "lon": 5.76409,
   "tags": {
    "addr:postcode": "38220",
    "name": "Saint-Pierre-de-Mésage",
    "place": "village",
    "ref:FR:SIREN": "213804453"
   }
  },
  {
   "type": "node",
   "id": 34055403,
   "lat": 45.2735196,
   "lon": 5.7584755,
   "tags": {
    "addr:postcode": "38700",
    "name": "Sarcenas",
    "place": "village",
    "ref:FR:SIREN": "213804727"
   }
  },
  {
   "type": "node",
   "id": 34055408,
   "lat": 45.0538425,
   "lon": 5.8346974,
   "tags": {
    "addr:postcode": "38220",
    "name": "Séchilienne",
    "place": "village",
    "ref:FR:SIREN": "213804784"
   }
  },
  {
   "type": "node",
   "id": 34055454,
   "lat": 45.1072,
   "lon": 5.80679,
   "tags": {
    "addr:postcode": "38410",
    "name": "Vaulnaveys-le-Bas",
    "place": "village",
    "ref:FR:SIREN": "213805286"
   }
  },
  {
   "type": "node",
   "id": 34055459,
   "lat": 45.1723821,
   "lon": 5.8045434,
   "tags": {
    "addr:postcode": "38610",
    "name": "Venon",
    "place": "village"
   }
  },
  {
   "type": "node",
   "id": 34055462,
   "lat": 45.2722019,
   "lon": 5.61271,
   "tags": {
    "addr:postcode": "38113",
    "name": "Veurey-Voroize",
    "place": "village",
    "ref:FR:SIREN": "213805401"
   }
  },
  {
   "type": "node",
   "id": 285985177,
   "lat": 45.2092471,
   "lon": 5.7811983,
   "tags": {
    "addr:postcode": "38240",
    "name": "Meylan",
    "name:ru": "Мелан",
    "name:uk": "Мейлан",
    "place": "town",
    "ref:FR:SIREN": "213802291",
    "wikidata": "Q632175",
    "wikipedia": "fr:Meylan"
   }
  },
  {
   "type": "node",
   "id": 963046396,
   "lat": 45.2712291,
   "lon": 5.6743557,
   "tags": {
    "addr:postcode": "38120",
    "name": "Mont-Saint-Martin",
    "place": "village",
    "ref:FR:SIREN": "213802580"
   }
  },
  {
   "type": "node",
   "id": 1704314483,
   "lat": 45.1836683,
   "lon": 5.75448,
   "tags": {
    "name": "Saint-Martin-d'Hères",
    "place": "town",
    "wikidata": "Q243868",
    "wikipedia": "fr:Saint-Martin-d'Hères"
   }
  }
 ]
}